      2.10          N: GNSS NAV DATA                        RINEX VERSION / TYPE
fic2rin                                 08/13/2019 00:18:54 PGM / RUN BY / DATE
                                                            END OF HEADER
10 19  8 12 23 59 44.0-1.209555193782e-05-1.409716787748e-11 0.000000000000e+00
    4.000000000000e+00-6.293750000000e+01 4.257320191617e-09-2.275355595979e+00
   -3.380700945854e-06 4.733837093227e-03 1.084804534912e-05 5.153668413162e+03
    1.727840000000e+05 7.636845111847e-08 2.965693559098e+00-8.568167686462e-08
    9.639421391678e-01 1.734375000000e+02-2.719223275981e+00-7.702820853407e-09
    3.693010971588e-10 1.000000000000e+00 2.066000000000e+03 0.000000000000e+00
    2.400000000000e+00 0.000000000000e+00 1.862645149231e-09 4.000000000000e+00
    1.710900000000e+05 4.000000000000e+00
11 19  8 12 23 59 44.0-5.366946570575e-04 1.011812855722e-11 0.000000000000e+00
    1.300000000000e+01-3.550000000000e+01 5.918103655629e-09-9.999371273264e-01
   -1.767650246620e-06 1.677477231715e-02 1.445412635803e-06 5.153719791412e+03
    1.727840000000e+05-2.533197402954e-07 1.470854968682e+00-1.490116119385e-08
    9.099898506042e-01 3.295312500000e+02 1.924494179273e+00-9.227884378424e-09
    1.342913080577e-10 1.000000000000e+00 2.066000000000e+03 0.000000000000e+00
    2.400000000000e+00 0.000000000000e+00-1.210719347000e-08 1.300000000000e+01
    1.718400000000e+05 4.000000000000e+00
